NORAD_CAT_ID,OBJECT_NAME,OBJECT_TYPE,EPOCH,MEAN_MOTION,ECCENTRICITY,INCLINATION,RA_OF_ASC_NODE,ARG_OF_PERICENTER,MEAN_ANOMALY,BSTAR,MEAN_MOTION_DOT,MEAN_MOTION_DDOT,TLE_LINE0,TLE_LINE1,TLE_LINE2,SEMIMAJOR_AXIS,PERIOD,APOGEE,PERIGEE,DECAYED
51956.0,STARLINK-3700,PAYLOAD,2022-06-14 14:00:01,15.08835535,0.0001564999999999,53.2169,32.8345,49.6654,216.2942,-1.5315e-05,-5.32e-06,0.0,0 STARLINK-3700,1 51956U 22025A   22165.58334491 -.00000532  00000-0 -15315-4 0  9991,2 51956  53.2169  32.8345 0001565  49.6654 216.2942 15.08835535  1303,6917.894,95.438,540.842,538.6759999999998,0.0
51956.0,STARLINK-3700,PAYLOAD,2022-06-14 22:00:00,15.08813958,0.000183,53.2167,31.3398,47.0988,230.4443,0.00027751,4.128e-05,0.0,0 STARLINK-3700,1 51956U 22025A   22165.91667824  .00004128  00000-0  27751-3 0  9996,2 51956  53.2167  31.3398 0001830  47.0988 230.4443 15.08813958 16406,6917.96,95.439,541.091,538.559,0.0
51956.0,STARLINK-3700,PAYLOAD,2022-06-15 14:00:01,15.08822736,0.0001674,53.2163,28.3452,53.606,247.0842,0.0026404,0.00041965,0.0,0 STARLINK-3700,1 51956U 22025A   22166.58334491  .00041965  00000-0  26404-2 0  9994,2 51956  53.2163  28.3452 0001674  53.6060 247.0842 15.08822736  1303,6917.933000000001,95.439,540.956,538.64,0.0
51956.0,STARLINK-3700,PAYLOAD,2022-06-15 22:00:00,15.08848901,0.0001829,53.2161,26.8506,47.9053,264.3808,7.4483e-05,8.98e-06,0.0,0 STARLINK-3700,1 51956U 22025A   22166.91667824  .00000898  00000-0  74483-4 0  9992,2 51956  53.2161  26.8506 0001829  47.9053 264.3808 15.08848901 16553,6917.853,95.437,540.9830000000002,538.453,0.0
51956.0,STARLINK-3700,PAYLOAD,2022-06-16 02:00:01,15.08848027,0.0001819,53.2158,26.1025,44.5129,93.5808,0.00069833,0.00010846,0.0,0 STARLINK-3700,1 51956U 22025A   22167.08334491  .00010846  00000-0  69833-3 0  9998,2 51956  53.2158  26.1025 0001819  44.5129  93.5808 15.08848027  1302,6917.856,95.437,540.979,538.462,0.0
51956.0,STARLINK-3700,PAYLOAD,2022-06-19 14:00:01,15.08826106,0.0001829,53.2174,10.3878,53.2726,26.5069,0.0013289,0.00020917,0.0,0 STARLINK-3700,1 51956U 22025A   22170.58334491  .00020917  00000-0  13289-2 0  9990,2 51956  53.2174  10.3878 0001829  53.2726  26.5069 15.08826106  1301,6917.9230000000025,95.438,541.053,538.523,0.0
51956.0,STARLINK-3700,PAYLOAD,2022-06-19 20:00:01,15.08836903,0.0001984,53.2173,9.2671,48.6801,309.7893,-3.7522e-05,-8.85e-06,0.0,0 STARLINK-3700,1 51956U 22025A   22170.83334491 -.00000885  00000-0 -37522-4 0  9990,2 51956  53.2173   9.2671 0001984  48.6801 309.7893 15.08836903 17148,6917.89,95.438,541.127,538.382,0.0
51956.0,STARLINK-3700,PAYLOAD,2022-06-19 22:00:00,15.08824464,0.0001999,53.2174,8.8933,47.8526,43.5177,0.001966,0.00031126,0.0,0 STARLINK-3700,1 51956U 22025A   22170.91667824  .00031126  00000-0  19660-2 0  9999,2 51956  53.2174   8.8933 0001999  47.8526  43.5177 15.08824464  1304,6917.928000000001,95.439,541.1759999999998,538.41,0.0
51956.0,STARLINK-3700,PAYLOAD,2022-06-20 14:00:01,15.08847433,0.0001748,53.2177,5.8988,52.2289,62.3376,-0.0004101,-6.809999999999999e-05,0.0,0 STARLINK-3700,1 51956U 22025A   22171.58334491 -.00006810  00000-0 -41010-3 0  9993,2 51956  53.2177   5.8988 0001748  52.2289  62.3376 15.08847433  1303,6917.858,95.437,540.932,538.513,0.0
51956.0,STARLINK-3700,PAYLOAD,2022-06-20 22:00:00,15.088247099999998,0.0001889,53.2176,4.4043,45.5847,80.5905,0.0023081,0.00036621,0.0,0 STARLINK-3700,1 51956U 22025A   22171.91667824  .00036621  00000-0  23081-2 0  9997,2 51956  53.2176   4.4043 0001889  45.5847  80.5905 15.08824710 17311,6917.927,95.439,541.099,538.485,0.0
51956.0,STARLINK-3700,PAYLOAD,2022-06-21 14:00:01,15.088377,0.0001622,53.2177,1.41,50.1753,99.1824,0.00031048,4.656e-05,0.0,0 STARLINK-3700,1 51956U 22025A   22172.58334491  .00004656  00000-0  31048-3 0  9998,2 51956  53.2177   1.4100 0001622  50.1753  99.1824 15.08837700 17416,6917.887,95.438,540.875,538.63,0.0
51956.0,STARLINK-3700,PAYLOAD,2022-06-21 22:00:00,15.08829808,0.0001826,53.2174,359.9154,44.8026,116.1484,-0.00015247,-2.713e-05,0.0,0 STARLINK-3700,1 51956U 22025A   22172.91667824 -.00002713  00000-0 -15247-3 0  9991,2 51956  53.2174 359.9154 0001826  44.8026 116.1484 15.08829808  1305,6917.9119999999975,95.438,541.04,538.513,0.0
51956.0,STARLINK-3700,PAYLOAD,2022-06-22 06:00:00,15.08819681,0.0001718,53.2171,358.4176,50.2565,122.2852,-0.00011736,-2.154e-05,0.0,0 STARLINK-3700,1 51956U 22025A   22173.25001157 -.00002154  00000-0 -11736-3 0  9998,2 51956  53.2171 358.4176 0001718  50.2565 122.2852 15.08819681 17514,6917.941999999999,95.439,540.996,538.619,0.0
51956.0,STARLINK-3700,PAYLOAD,2022-06-22 14:00:01,15.0883565,0.000172,53.2172,356.9214,54.1053,129.9993,-0.00021275,-3.672e-05,0.0,0 STARLINK-3700,1 51956U 22025A   22173.58334491 -.00003672  00000-0 -21275-3 0  9999,2 51956  53.2172 356.9214 0001720  54.1053 129.9993 15.08835650  1303,6917.894,95.438,540.9490000000002,538.569,0.0
51956.0,STARLINK-3700,PAYLOAD,2022-06-22 22:00:00,15.08811039,0.0001876,53.2168,355.4266,47.4531,148.2439,0.0030161,0.00048003,0.0,0 STARLINK-3700,1 51956U 22025A   22173.91667824  .00048003  00000-0  30161-2 0  9993,2 51956  53.2168 355.4266 0001876  47.4531 148.2439 15.08811039  1301,6917.969,95.439,541.132,538.536,0.0
51956.0,STARLINK-3700,PAYLOAD,2022-06-23 06:00:00,15.0884161,0.0001718,53.2165,353.9286,51.265,156.0193,0.00037465,5.68e-05,0.0,0 STARLINK-3700,1 51956U 22025A   22174.25001157  .00005680  00000-0  37465-3 0  9991,2 51956  53.2165 353.9286 0001718  51.2650 156.0193 15.08841610 17661,6917.875,95.437,540.929,538.552,0.0
51956.0,STARLINK-3700,PAYLOAD,2022-06-23 14:00:01,15.088733800000002,0.0001714,53.2166,352.4325,54.2598,164.6134,-0.0028066,-0.00044719,0.0,0 STARLINK-3700,1 51956U 22025A   22174.58334491 -.00044719  00000-0 -28066-2 0  9991,2 51956  53.2166 352.4325 0001714  54.2598 164.6134 15.08873380  1303,6917.778,95.435,540.8290000000002,538.4580000000002,0.0
51956.0,STARLINK-3700,PAYLOAD,2022-06-23 22:00:00,15.0881044,0.0001816,53.2163,350.9376,45.2357,185.2607,0.0027973,0.00044476,0.0,0 STARLINK-3700,1 51956U 22025A   22174.91667824  .00044476  00000-0  27973-2 0  9991,2 51956  53.2163 350.9376 0001816  45.2357 185.2607 15.08810440  1307,6917.971,95.439,541.092,538.5790000000002,0.0
51956.0,STARLINK-3700,PAYLOAD,2022-06-24 06:00:02,15.08831293,0.000165,53.2161,349.4392,49.1355,193.0071,0.0007899,0.00012303,0.0,0 STARLINK-3700,1 51956U 22025A   22175.25002315  .00012303  00000-0  78990-3 0  9997,2 51956  53.2161 349.4392 0001650  49.1355 193.0071 15.08831293 17817,6917.906999999997,95.438,540.913,538.631,0.0
51956.0,STARLINK-3700,PAYLOAD,2022-06-24 14:00:01,15.08865833,0.0001641999999999,53.2162,347.9433,50.9192,202.7344,-0.004287,-0.00067921,0.0,0 STARLINK-3700,1 51956U 22025A   22175.58334491 -.00067921  00000-0 -42870-2 0  9991,2 51956  53.2162 347.9433 0001642  50.9192 202.7344 15.08865833  1302,6917.801,95.436,540.802,538.531,0.0
51956.0,STARLINK-3700,PAYLOAD,2022-06-24 22:00:01,15.08789451,0.0001761999999999,53.2161,346.4482,42.0749,223.245,0.0032724,0.00052105,0.0,0 STARLINK-3700,1 51956U 22025A   22175.91668981  .00052105  00000-0  32724-2 0  9995,2 51956  53.2161 346.4482 0001762  42.0749 223.2450 15.08789451 17913,6918.035,95.441,541.119,538.681,0.0
51956.0,STARLINK-3700,PAYLOAD,2022-06-25 14:00:01,15.08842369,0.000167,53.2163,343.4539,48.4841,239.8994,-0.00093749,-0.00015178,0.0,0 STARLINK-3700,1 51956U 22025A   22176.58334491 -.00015178  00000-0 -93749-3 0  9991,2 51956  53.2163 343.4539 0001670  48.4841 239.8994 15.08842369  1306,6917.873000000001,95.437,540.893,538.5830000000002,0.0
51956.0,STARLINK-3700,PAYLOAD,2022-06-25 16:00:00,15.08842911,0.0001737,53.2162,343.0804,46.2333,335.048,-0.0013049,-0.00020997,0.0,0 STARLINK-3700,1 51956U 22025A   22176.66667824 -.00020997  00000-0 -13049-2 0  9998,2 51956  53.2162 343.0804 0001737  46.2333 335.0480 15.08842911 18021,6917.871,95.437,540.938,538.535,0.0
51956.0,STARLINK-3700,PAYLOAD,2022-06-25 22:00:00,15.088166500000002,0.000183,53.2162,341.9588,42.0261,257.9562,0.0033624,0.00053598,0.0,0 STARLINK-3700,1 51956U 22025A   22176.91667824  .00053598  00000-0  33624-2 0  9998,2 51956  53.2162 341.9588 0001830  42.0261 257.9562 15.08816650  1302,6917.9519999999975,95.439,541.0830000000002,538.5509999999998,0.0
51956.0,STARLINK-3700,PAYLOAD,2022-06-26 08:00:01,15.08827975,0.0001625,53.2165,340.086,47.6393,356.8472,0.0036506,0.00058273,0.0,0 STARLINK-3700,1 51956U 22025A   22177.33334491  .00058273  00000-0  36506-2 0  9993,2 51956  53.2165 340.0860 0001625  47.6393 356.8472 15.08827975 18126,6917.917,95.438,540.906,538.658,0.0
51956.0,STARLINK-3700,PAYLOAD,2022-06-26 14:00:01,15.08889705,0.0001695,53.2167,338.9645,46.4206,276.8222,-0.0035856,-0.00056979,0.0,0 STARLINK-3700,1 51956U 22025A   22177.58335648 -.00056979  00000-0 -35856-2 0  9995,2 51956  53.2167 338.9645 0001695  46.4206 276.8222 15.08889705  1307,6917.728,95.434,540.766,538.4209999999998,0.0
51956.0,STARLINK-3700,PAYLOAD,2022-06-26 22:00:00,15.08830962,0.0001817,53.2166,337.4693,40.2398,294.5761,0.0021662,0.00034347,0.0,0 STARLINK-3700,1 51956U 22025A   22177.91667824  .00034347  00000-0  21662-2 0  9999,2 51956  53.2166 337.4693 0001817  40.2398 294.5761 15.08830962 18217,6917.908,95.438,541.03,538.516,0.0
51956.0,STARLINK-3700,PAYLOAD,2022-06-27 06:00:00,15.0881579,0.0001675999999999,53.2169,335.971,46.9912,299.4305,0.0011993,0.00018838,0.0,0 STARLINK-3700,1 51956U 22025A   22178.25001157  .00018838  00000-0  11993-2 0  9991,2 51956  53.2169 335.9710 0001676  46.9912 299.4305 15.08815790 18266,6917.954000000002,95.439,540.979,538.66,0.0
51956.0,STARLINK-3700,PAYLOAD,2022-06-27 14:00:01,15.08846176,0.0001771,53.2173,334.4754,47.3973,310.5943,-0.0013698,-0.00022026,0.0,0 STARLINK-3700,1 51956U 22025A   22178.58334491 -.00022026  00000-0 -13698-2 0  9997,2 51956  53.2173 334.4754 0001771  47.3973 310.5943 15.08846176  1303,6917.861999999999,95.437,540.952,538.501,0.0
